[Satellite]
VERSION=1.1
NAME=GPS BIIA-27 (PRN 30)
NICKNAME=GPS BIIA-27 (PRN 30)
TLE1=1 24320U 96056A   11058.98999614 -.00000002  00000-0  00000+0 0  8886
TLE2=2 24320  54.9772  70.5186 0124427  87.7486 273.7199  2.00567365105811
